OBJECT_NAME,OBJECT_ID,EPOCH,MEAN_MOTION,ECCENTRICITY,INCLINATION,RA_OF_ASC_NODE,ARG_OF_PERICENTER,MEAN_ANOMALY,EPHEMERIS_TYPE,CLASSIFICATION_TYPE,NORAD_CAT_ID,ELEMENT_SET_NO,REV_AT_EPOCH,BSTAR,MEAN_MOTION_DOT,MEAN_MOTION_DDOT
ZORKIY-2M 1,2023-091M,2026-06-04T04:25:20.826048,15.20724234,.0014104,97.5092,214.1920,156.3845,203.8040,0,U,57177,999,16202,.38307E-3,.8381E-4,0
CUBESX-HSE 3 (RS42S),2023-091N,2026-06-04T04:01:42.282336,15.30869571,.0012045,97.5094,220.5936,134.9325,225.2895,0,U,57178,999,16243,.50399E-3,.15001E-3,0
MONITOR-3 (RS58S),2023-091Q,2026-06-04T03:56:00.938400,15.27565922,.0012863,97.5085,218.5166,141.1957,219.0208,0,U,57180,999,16230,.44641E-3,.11994E-3,0
MONITOR-4 (RS57S),2023-091S,2026-06-04T03:26:58.295328,15.27663554,.0012805,97.5078,218.4669,141.6583,218.5569,0,U,57182,999,16230,.46321E-3,.12486E-3,0
MONITOR-2 (RS39S),2023-091U,2026-06-04T04:51:20.170656,15.18783513,.0012066,97.5075,213.5700,151.3600,208.8299,0,U,57184,999,16198,.27231E-3,.5604E-4,0
SVYATOBOR 1 (RS60S),2023-091X,2026-06-04T03:29:52.985760,15.26381950,.0010712,97.5090,218.8925,133.7795,226.4331,0,U,57187,999,16232,.38898E-3,.10063E-3,0
HORS 1,2023-091Y,2026-06-04T03:10:19.849152,15.26481984,.0010202,97.5069,218.6431,133.1490,227.0603,0,U,57188,999,16232,.40807E-3,.10592E-3,0
VIZARD-METEO (RS38S),2023-091Z,2026-06-04T02:48:12.600864,15.35589021,.0008752,97.5093,224.3441,116.2926,243.9218,0,U,57189,999,16268,.54136E-3,.18692E-3,0
SITRO-AIS 6 (CHIRKIN),2023-091AC,2026-06-04T01:31:35.441760,15.25671093,.0012731,97.5070,218.0290,147.2959,212.9070,0,U,57192,999,16228,.46513E-3,.11802E-3,0
SITRO-AIS 8 (ANOKHIN),2023-091AD,2026-06-04T03:42:05.745024,15.31766300,.0011702,97.5059,220.4686,139.9672,220.2434,0,U,57193,999,16245,.5312E-3,.16264E-3,0
SITRO-AIS 7 (FARTUSHNIY),2023-091AE,2026-06-04T03:06:45.578880,15.25367697,.0012561,97.5068,217.9269,148.0097,212.1906,0,U,57194,999,16228,.4758E-3,.11965E-3,0
AVION KALUGA 650,2023-091AF,2026-06-04T04:41:57.084576,15.20207055,.00113,97.5092,214.8257,149.1743,211.0158,0,U,57195,999,16205,.31052E-3,.6671E-4,0
HORS 2,2023-091AG,2026-06-04T03:56:05.413056,15.31539678,.0009537,97.5090,222.0191,126.3026,233.9097,0,U,57196,999,16253,.50461E-3,.15324E-3,0
A-SEANSAT-PG1,2023-091AH,2026-06-04T04:24:12.036096,15.36487784,.0008632,97.5082,224.4919,123.0692,237.1381,0,U,57197,999,16271,.59375E-3,.21114E-3,0
SITRO-AIS 10 (BURDAEV),2023-091AK,2026-06-04T02:38:16.522080,15.38090582,.0007997,97.5082,225.3446,118.3858,241.8193,0,U,57199,999,16275,.59183E-3,.22163E-3,0
SITRO-AIS 9 (SHCHUKIN),2023-091AM,2026-06-04T01:36:42.007968,15.37617517,.0008209,97.5081,225.0409,118.6662,241.5408,0,U,57201,999,16273,.58331E-3,.2151E-3,0
UTMN 2 (RS27S),2023-091AP,2026-06-04T04:37:19.921152,15.31717738,.000945,97.5089,222.2366,122.2122,238.0036,0,U,57203,999,16255,.48662E-3,.14856E-3,0
SITRO-AIS 12 (SMIRENNIY),2023-091AQ,2026-06-04T04:34:08.572800,15.37912761,.0007849,97.5093,225.6260,113.3448,246.8623,0,U,57204,999,16277,.59582E-3,.22184E-3,0
SITRO-AIS 11 (SHEFFER),2023-091AU,2026-06-04T00:17:33.527040,15.38315620,.0007793,97.5091,225.6821,113.8409,246.3653,0,U,57208,999,16276,.608E-3,.22939E-3,0
H2SAT (HEINRICH HERTZ),2023-093A,2026-06-04T03:17:58.373088,1.00272490,.0000975,0.0448,123.4904,332.0680,207.2004,0,U,57213,999,1078,0,.14E-6,0
KUZGTU 1 (RS47S),2023-091AV,2026-06-04T01:58:16.815648,15.29543001,.0012168,97.5065,219.4315,138.4350,221.7817,0,U,57217,999,16237,.47282E-3,.13501E-3,0
QIANKUN-1,2023-103B,2026-05-31T16:15:12.115584,16.07626689,.00240549,96.1558,197.6671,142.5816,217.7151,0,U,57422,999,16464,.28012432E-4,.22767E-3,.1887657E-5
FENGYUN 3F,2023-111A,2026-06-04T03:35:19.057632,14.19936767,.0001552,98.6837,225.4008,102.9046,257.2304,0,U,57490,999,14701,.51368E-4,.66E-6,0
HJ-2F,2023-116A,2026-06-04T04:06:27.165600,15.22124654,.0010587,97.3843,160.6185,89.5122,270.7328,0,U,57519,999,15677,.38323E-3,.8729E-4,0
XRISM,2023-137A,2026-06-02T06:36:16.681248,15.12327778,.00076942,31.0020,96.1840,175.1081,184.9634,0,U,57800,999,15060,.31044403E-3,.5615E-4,0
METEOR-M2 4,2024-039A,2026-06-04T04:05:00.947904,14.22428116,.000652,98.7005,114.6323,199.0460,161.0475,0,U,59051,999,11741,.28399E-4,.19E-6,0
GRBBETA,2024-128C,2026-06-03T21:06:39.763296,15.06538097,.0042441,61.9905,262.9523,131.9230,228.5494,0,U,60237,999,10426,.33246E-3,.4824E-4,0
TRANSPORTER-11 OBJECT A,2024-149A,2026-06-04T02:19:44.312160,15.32684039,.0001737,97.3731,235.0694,255.7782,104.3267,0,U,60468,999,10005,.30792E-3,.9643E-4,0
WARATAH SEED-1,2024-149B,2026-06-04T00:21:17.876736,15.35600421,.0000334,97.3686,235.5807,231.4383,128.6830,0,U,60469,999,10009,.42975E-3,.14804E-3,0
